KUIPER-00095            
1 65134U 25171C   25342.83335647 -.00043378  00000+0 -36860-2 0  9991
2 65134  51.8876 193.2097 0005064 163.3353 181.2849 14.97450306  5249
KUIPER-00096            
1 65135U 25171D   25342.84970795  .00023133  00000+0  30503-2 0  9995
2 65135  51.8989 199.7818 0011264 201.7879 158.2606 14.79932573 19449
KUIPER-00097            
1 65136U 25171E   25342.83335647 -.00023342  00000+0 -31694-2 0  9992
2 65136  51.8987 202.4494 0010506 203.2175  93.4280 14.78183487  5112
KUIPER-00098            
1 65137U 25171F   25342.84438632  .00006166  00000+0  83825-3 0  9999
2 65137  51.8993 204.8067 0008160 187.7671 172.3166 14.79865421 18718
KUIPER-00099            
1 65138U 25171G   25342.83335647 -.00040974  00000+0 -40980-2 0  9992
2 65138  51.8957 195.1537 0005739 233.1290   0.9759 14.91027934  4111
KUIPER-00100            
1 65139U 25171H   25342.83335647 -.01011677  00000+0 -80408-1 0  9990
2 65139  51.8905 193.2221 0002426 238.7246 202.4628 15.02826594  3199
KUIPER-00102            
1 65140U 25171J   25342.83335647 -.00940448  00000+0 -10480+0 0  9999
2 65140  51.8957 195.0547 0011688 186.3464 321.1010 14.89446168  5701
KUIPER-00103            
1 65141U 25171K   25342.80249353  .00005351  00000+0  73107-3 0  9997
2 65141  51.8974 212.4837 0005970 184.6474 175.4433 14.79889473 19259
